NORAD_CAT_ID,OBJECT_NAME,OBJECT_TYPE,EPOCH,MEAN_MOTION,ECCENTRICITY,INCLINATION,RA_OF_ASC_NODE,ARG_OF_PERICENTER,MEAN_ANOMALY,BSTAR,MEAN_MOTION_DOT,MEAN_MOTION_DDOT,TLE_LINE0,TLE_LINE1,TLE_LINE2,SEMIMAJOR_AXIS,PERIOD,APOGEE,PERIGEE,DECAYED
53867.0,STARLINK-4793,PAYLOAD,2022-11-20 22:00:00,15.73233928,0.0004019,53.2141,307.6075,4.6306,228.4482,-0.00030745,-0.00043634,0.0,0 STARLINK-4793,1 53867U 22114BB  22324.91667824 -.00043634  00000-0 -30745-3 0  9999,2 53867  53.2141 307.6075 0004019   4.6306 228.4482 15.73233928  1305,6727.7980000000025,91.531,352.367,346.96,0.0
53867.0,STARLINK-4793,PAYLOAD,2022-11-21 08:00:01,15.73154026,0.0004269,53.2139,305.5477,5.7852,68.4843,0.00030209,0.0004192,0.0,0 STARLINK-4793,1 53867U 22114BB  22325.33334491  .00041920  00000-0  30209-3 0  9996,2 53867  53.2139 305.5477 0004269   5.7852  68.4843 15.73154026 10539,6728.026,91.536,352.76300000000015,347.019,0.0
53867.0,STARLINK-4793,PAYLOAD,2022-11-21 14:00:01,15.73184768,0.0004226,53.2136,304.3095,5.2738,45.6531,0.00017526,0.00024038,0.0,0 STARLINK-4793,1 53867U 22114BB  22325.58334491  .00024038  00000-0  17526-3 0  9991,2 53867  53.2136 304.3095 0004226   5.2738  45.6531 15.73184768  1302,6727.939,91.534,352.647,346.96,0.0
53867.0,STARLINK-4793,PAYLOAD,2022-11-21 22:00:00,15.73205642,0.0003979,53.214,302.6584,6.9126,132.9324,0.00053832,0.00075655,0.0,0 STARLINK-4793,1 53867U 22114BB  22325.91667824  .00075655  00000-0  53832-3 0  9998,2 53867  53.2140 302.6584 0003979   6.9126 132.9324 15.73205642  1309,6727.879,91.533,352.421,347.06699999999995,0.0
53867.0,STARLINK-4793,PAYLOAD,2022-11-22 14:00:01,15.73186344,0.0004115,53.214,299.36,3.1088,314.7316,-2.8784e-05,-4.662e-05,0.0,0 STARLINK-4793,1 53867U 22114BB  22326.58335648 -.00004662  00000-0 -28784-4 0  9999,2 53867  53.2140 299.3600 0004115   3.1088 314.7316 15.73186344 10734,6727.934,91.534,352.5680000000001,347.031,0.0
53867.0,STARLINK-4793,PAYLOAD,2022-11-22 22:00:00,15.73221846,0.0003943,53.2142,297.7094,5.8218,40.8553,-0.00016209,-0.00023342,0.0,0 STARLINK-4793,1 53867U 22114BB  22326.91667824 -.00023342  00000-0 -16209-3 0  9994,2 53867  53.2142 297.7094 0003943   5.8218  40.8553 15.73221846  1307,6727.833000000001,91.532,352.351,347.045,0.0
53867.0,STARLINK-4793,PAYLOAD,2022-11-23 08:00:01,15.73204199,0.0004127,53.2158,295.6509,4.6154,243.2821,-0.00089485,-0.00124468,0.0,0 STARLINK-4793,1 53867U 22114BB  22327.33334491 -.00124468  00000-0 -89485-3 0  9999,2 53867  53.2158 295.6509 0004127   4.6154 243.2821 15.73204199 10852,6727.8830000000025,91.533,352.525,346.972,0.0
53867.0,STARLINK-4793,PAYLOAD,2022-11-23 14:00:01,15.73246452,0.0004128,53.2137,294.411,3.8158,220.7907,-0.00067773,-0.00094916,0.0,0 STARLINK-4793,1 53867U 22114BB  22327.58334491 -.00094916  00000-0 -67773-3 0  9996,2 53867  53.2137 294.4110 0004128   3.8158 220.7907 15.73246452  1303,6727.763000000001,91.53,352.405,346.851,0.0
53867.0,STARLINK-4793,PAYLOAD,2022-11-23 16:00:00,15.73190224,0.0004004,53.2139,293.998,4.7780000000000005,332.0831,4.6805e-05,5.949e-05,0.0,0 STARLINK-4793,1 53867U 22114BB  22327.66667824  .00005949  00000-0  46805-4 0  9994,2 53867  53.2139 293.9980 0004004   4.7780 332.0831 15.73190224 10902,6727.9230000000025,91.534,352.482,347.094,0.0
53867.0,STARLINK-4793,PAYLOAD,2022-11-23 22:00:00,15.73222169,0.0003921,53.2141,292.7602,6.1706,307.3785,-6.6925e-06,-1.565e-05,0.0,0 STARLINK-4793,1 53867U 22114BB  22327.91667824 -.00001565  00000-0 -66925-5 0  9990,2 53867  53.2141 292.7602 0003921   6.1706 307.3785 15.73222169  1305,6727.831999999999,91.532,352.335,347.059,0.0
53867.0,STARLINK-4793,PAYLOAD,2022-11-24 14:00:01,15.73247208,0.0004106,53.2142,289.4618,3.3238,128.0954,-0.00062822,-0.000881,0.0,0 STARLINK-4793,1 53867U 22114BB  22328.58334491 -.00088100  00000-0 -62822-3 0  9995,2 53867  53.2142 289.4618 0004106   3.3238 128.0954 15.73247208  1308,6727.761,91.53,352.38800000000015,346.86300000000006,0.0
53867.0,STARLINK-4793,PAYLOAD,2022-11-24 22:00:00,15.73191513,0.0003897,53.2143,287.8116,2.7228,217.6392,0.00023303,0.00032206,0.0,0 STARLINK-4793,1 53867U 22114BB  22328.91667824  .00032206  00000-0  23303-3 0  9996,2 53867  53.2143 287.8116 0003897   2.7228 217.6392 15.73191513 11109,6727.919,91.534,352.406,347.163,0.0
53867.0,STARLINK-4793,PAYLOAD,2022-11-25 14:00:01,15.73200964,0.0004018,53.2137,284.5132,1.7692,36.4411,0.00023511,0.00032514,0.0,0 STARLINK-4793,1 53867U 22114BB  22329.58334491  .00032514  00000-0  23511-3 0  9994,2 53867  53.2137 284.5132 0004018   1.7692  36.4411 15.73200964 11205,6727.892,91.533,352.461,347.05400000000014,0.0
53867.0,STARLINK-4793,PAYLOAD,2022-11-25 22:00:00,15.73270751,0.0003901,53.214,282.8631,5.6194,121.5303,-0.00036758,-0.00052074,0.0,0 STARLINK-4793,1 53867U 22114BB  22329.91667824 -.00052074  00000-0 -36758-3 0  9992,2 53867  53.2140 282.8631 0003901   5.6194 121.5303 15.73270751  1301,6727.693,91.529,352.18300000000005,346.934,0.0
53867.0,STARLINK-4793,PAYLOAD,2022-11-26 14:00:01,15.73257993,0.0003993,53.2147,279.5643,3.9637,301.1531,-0.00067538,-0.00094635,0.0,0 STARLINK-4793,1 53867U 22114BB  22330.58334491 -.00094635  00000-0 -67538-3 0  9997,2 53867  53.2147 279.5643 0003993   3.9637 301.1531 15.73257993 11367,6727.73,91.53,352.281,346.908,0.0
53867.0,STARLINK-4793,PAYLOAD,2022-11-26 22:00:00,15.73204848,0.0003925,53.2151,277.9145,2.8533,31.2164,9.8369e-05,0.00013211,0.0,0 STARLINK-4793,1 53867U 22114BB  22330.91667824  .00013211  00000-0  98369-4 0  9999,2 53867  53.2151 277.9145 0003925   2.8533  31.2164 15.73204848 11419,6727.880999999999,91.533,352.38699999999994,347.106,0.0
53867.0,STARLINK-4793,PAYLOAD,2022-11-27 14:00:01,15.73137817,0.0003974,53.2149,274.6159,3.9933,207.9322,0.00026127,0.00036118,0.0,0 STARLINK-4793,1 53867U 22114BB  22331.58334491  .00036118  00000-0  26127-3 0  9997,2 53867  53.2149 274.6159 0003974   3.9933 207.9322 15.73137817 11526,6728.071999999999,91.537,352.611,347.264,0.0
53867.0,STARLINK-4793,PAYLOAD,2022-11-27 22:00:00,15.73204307,0.0003847,53.215,272.9664,4.7699,296.0071,-0.00015412,-0.0002221,0.0,0 STARLINK-4793,1 53867U 22114BB  22331.91667824 -.00022210  00000-0 -15412-3 0  9998,2 53867  53.2150 272.9664 0003847   4.7699 296.0071 15.73204307  1301,6727.8830000000025,91.533,352.336,347.16,0.0
53867.0,STARLINK-4793,PAYLOAD,2022-11-28 16:00:00,15.7311982,0.0003898,53.2148,269.2548,359.3078,231.538,0.00059626,0.00083634,0.0,0 STARLINK-4793,1 53867U 22114BB  22332.66667824  .00083634  00000-0  59626-3 0  9991,2 53867  53.2148 269.2548 0003898 359.3078 231.5380 15.73119820 11699,6728.124,91.538,352.611,347.366,0.0
53867.0,STARLINK-4793,PAYLOAD,2022-11-28 22:00:01,15.73169799,0.0003894,53.2147,268.0182,1.1914,206.3513,0.00028253,0.00039176,0.0,0 STARLINK-4793,1 53867U 22114BB  22332.91668981  .00039176  00000-0  28253-3 0  9998,2 53867  53.2147 268.0182 0003894   1.1914 206.3513 15.73169799  1301,6727.981,91.535,352.466,347.226,0.0
53867.0,STARLINK-4793,PAYLOAD,2022-11-29 06:00:00,15.73188387,0.0004172,53.2141,266.3706,3.1525,293.2340000000001,0.00045148,0.00063211,0.0,0 STARLINK-4793,1 53867U 22114BB  22333.25001157  .00063211  00000-0  45148-3 0  9991,2 53867  53.2141 266.3706 0004172   3.1525 293.2340 15.73188387 11788,6727.928000000001,91.534,352.6,346.986,0.0
53867.0,STARLINK-4793,PAYLOAD,2022-11-29 14:00:01,15.73203526,0.0003908,53.2139,264.719,6.6444,18.7554,-0.00014542,-0.00020995,0.0,0 STARLINK-4793,1 53867U 22114BB  22333.58335648 -.00020995  00000-0 -14542-3 0  9990,2 53867  53.2139 264.7190 0003908   6.6444  18.7554 15.73203526 11834,6727.885,91.533,352.379,347.121,0.0
53867.0,STARLINK-4793,PAYLOAD,2022-11-29 22:00:00,15.7318291,0.0003917,53.2141,263.0697,11.1618,103.098,9.3437e-05,0.00012504,0.0,0 STARLINK-4793,1 53867U 22114BB  22333.91667824  .00012504  00000-0  93437-4 0  9997,2 53867  53.2141 263.0697 0003917  11.1618 103.0980 15.73182910  1300,6727.944,91.534,352.444,347.1740000000001,0.0
53867.0,STARLINK-4793,PAYLOAD,2022-11-30 06:00:00,15.73187515,0.0004131,53.2141,261.4218,10.7528,192.4206,0.00041535,0.00058064,0.0,0 STARLINK-4793,1 53867U 22114BB  22334.25001157  .00058064  00000-0  41535-3 0  9998,2 53867  53.2141 261.4218 0004131  10.7528 192.4206 15.73187515 11945,6727.931,91.534,352.575,347.016,0.0
53867.0,STARLINK-4793,PAYLOAD,2022-11-30 14:00:01,15.73177908,0.0003915,53.2148,259.7702,10.5252,281.6686,0.00036844,0.00051371,0.0,0 STARLINK-4793,1 53867U 22114BB  22334.58335648  .00051371  00000-0  36844-3 0  9990,2 53867  53.2148 259.7702 0003915  10.5252 281.6686 15.73177908 11994,6727.958000000001,91.534,352.457,347.189,0.0
53867.0,STARLINK-4793,PAYLOAD,2022-11-30 22:00:00,15.73288385,0.0003905,53.2159,258.1212,9.3554,11.6793,-0.00087468,-0.0012214,0.0,0 STARLINK-4793,1 53867U 22114BB  22334.91667824 -.00122140  00000-0 -87468-3 0  9994,2 53867  53.2159 258.1212 0003905   9.3554  11.6793 15.73288385  1301,6727.643,91.528,352.135,346.881,0.0
53867.0,STARLINK-4793,PAYLOAD,2022-12-01 06:00:00,15.73143853,0.000409,53.2166,256.474,6.9223,103.1113,0.00065749,0.00092483,0.0,0 STARLINK-4793,1 53867U 22114BB  22335.25001157  .00092483  00000-0  65749-3 0  9995,2 53867  53.2166 256.4740 0004090   6.9223 103.1113 15.73143853 12101,6728.055,91.536,352.672,347.168,0.0
53867.0,STARLINK-4793,PAYLOAD,2022-12-01 14:00:01,15.73205244,0.0003786,53.2134,254.8211,5.9911,192.9743,9.653e-05,0.00012952,0.0,0 STARLINK-4793,1 53867U 22114BB  22335.58334491  .00012952  00000-0  96530-4 0  9997,2 53867  53.2134 254.8211 0003786   5.9911 192.9743 15.73205244  1303,6727.88,91.533,352.292,347.1980000000001,0.0
53867.0,STARLINK-4793,PAYLOAD,2022-12-01 22:00:00,15.73238799,0.0003768,53.2137,253.1721,5.355,282.5316,6.9914e-05,9.218e-05,0.0,0 STARLINK-4793,1 53867U 22114BB  22335.91667824  .00009218  00000-0  69914-4 0  9990,2 53867  53.2137 253.1721 0003768   5.3550 282.5316 15.73238799  1300,6727.785,91.531,352.185,347.115,0.0
